[{"OBJECT_NAME":"STARLINK-5944","OBJECT_ID":"2023-042R","EPOCH":"2026-03-09T23:07:52.749408","MEAN_MOTION":15.02536171,"ECCENTRICITY":0.00011431,"INCLINATION":43.0045,"RA_OF_ASC_NODE":54.4406,"ARG_OF_PERICENTER":266.9792,"MEAN_ANOMALY":93.092,"EPHEMERIS_TYPE":0,"CLASSIFICATION_TYPE":"U","NORAD_CAT_ID":56001,"ELEMENT_SET_NO":999,"REV_AT_EPOCH":16295,"BSTAR":3.5653266e-5,"MEAN_MOTION_DOT":2.78e-6,"MEAN_MOTION_DDOT":0},{"OBJECT_NAME":"OBJECT A","OBJECT_ID":"2025-292A","EPOCH":"2026-03-09T21:45:44.016480","MEAN_MOTION":15.05451809,"ECCENTRICITY":0.00146319,"INCLINATION":97.6364,"RA_OF_ASC_NODE":145.598,"ARG_OF_PERICENTER":341.1551,"MEAN_ANOMALY":18.9132,"EPHEMERIS_TYPE":0,"CLASSIFICATION_TYPE":"U","NORAD_CAT_ID":66993,"ELEMENT_SET_NO":999,"REV_AT_EPOCH":1350,"BSTAR":0.00038878249,"MEAN_MOTION_DOT":5.535e-5,"MEAN_MOTION_DDOT":0}]
